{"fetched_at":"2026-07-14T06:34:31.567Z","source":"https://celestrak.org/NORAD/elements/gp.php?GROUP=stations&FORMAT=JSON","constellation":"tiangong","records":[{"OBJECT_NAME":"CSS (TIANHE)","OBJECT_ID":"2021-035A","EPOCH":"2026-07-13T20:51:12.017376","CLASSIFICATION_TYPE":"U","MEAN_MOTION":15.58061298,"ECCENTRICITY":0.0002698,"INCLINATION":41.469,"RA_OF_ASC_NODE":159.8761,"ARG_OF_PERICENTER":307.1688,"MEAN_ANOMALY":52.8903,"EPHEMERIS_TYPE":0,"NORAD_CAT_ID":48274,"ELEMENT_SET_NO":999,"REV_AT_EPOCH":29733,"BSTAR":0.000014357,"MEAN_MOTION_DOT":0.0000078,"MEAN_MOTION_DDOT":0}]}
