CSS (TIANHE)            
1 48274U 21035A   26194.86888909  .00000780  00000+0  14357-4 0  9992
2 48274  41.4690 159.8761 0002698 307.1688  52.8903 15.58061298297332
